STARLINK-1366
1 45569U 20025AQ  26090.91671296  .00183524  00000+0  90207-3 0  9999
2 45569  53.0391 287.2101 0004823 140.7862 101.4709 15.81137612  6034
